ONEWEB-0033             
1 45142U 20008M   24302.85348905 -.00000573  00000+0 -16787-2 0  9996
2 45142  87.8912 155.0308 0001569  72.7167 287.4132 13.10373485230115
ONEWEB-0035             
1 45143U 20008N   24302.88503813  .00000511  00000+0  14266-2 0  9991
2 45143  87.8922 155.0133 0001582  76.3012 283.8291 13.10375646229842
ONEWEB-0036             
1 45144U 20008P   24302.87506539  .00000127  00000+0  32817-3 0  9995
2 45144  87.8919 154.9668 0001378  88.6219 271.5066 13.10376402230272
ONEWEB-0038             
1 45145U 20008Q   24302.82130896 -.00000536  00000+0 -15469-2 0  9999
2 45145  87.8897 139.8649 0002254  95.0310 265.1076 13.11417675232166
ONEWEB-0039             
1 45146U 20008R   24302.85679543 -.00000627  00000+0 -18323-2 0  9993
2 45146  87.8915 154.9898 0001487  95.8349 264.2948 13.10373142230063
ONEWEB-0040             
1 45147U 20008S   24302.85015365 -.00000500  00000+0 -14692-2 0  9995
2 45147  87.8920 155.0018 0001580  82.3060 277.8247 13.10371824229763
ONEWEB-0043             
1 45149U 20008U   24302.85181203 -.00000606  00000+0 -17711-2 0  9994
2 45149  87.8916 155.0007 0001480 100.7506 259.3788 13.10371459230083
ONEWEB-0044             
1 45150U 20008V   24302.88005446  .00000363  00000+0  10037-2 0  9995
2 45150  87.8919 154.9891 0001524  91.3264 268.8038 13.10376827230382
